NORAD_CAT_ID,OBJECT_NAME,OBJECT_TYPE,EPOCH,MEAN_MOTION,ECCENTRICITY,INCLINATION,RA_OF_ASC_NODE,ARG_OF_PERICENTER,MEAN_ANOMALY,BSTAR,MEAN_MOTION_DOT,MEAN_MOTION_DDOT,TLE_LINE0,TLE_LINE1,TLE_LINE2,SEMIMAJOR_AXIS,PERIOD,APOGEE,PERIGEE,DECAYED
52550.0,STARLINK-3965,PAYLOAD,2022-09-27 01:04:23,15.08838162,0.0001952,53.2199,23.8774,50.2345,309.8818,-2.8456e-05,-7.41e-06,0.0,0 STARLINK-3965,1 52550U 22051T   22270.04471818 -.00000741  00000-0 -28456-4 0  9996,2 52550  53.2199  23.8774 0001952  50.2345 309.8818 15.08838162 21355,6917.886,95.438,541.101,538.401,0.0
52550.0,STARLINK-3965,PAYLOAD,2022-09-27 13:47:27,15.08866331,0.0001723,53.2209,21.4975,55.4896,304.6259,-5.9271e-05,-1.232e-05,0.0,0 STARLINK-3965,1 52550U 22051T   22270.57462434 -.00001232  00000-0 -59271-4 0  9993,2 52550  53.2209  21.4975 0001723  55.4896 304.6259 15.08866331 21438,6917.8,95.436,540.857,538.4730000000002,0.0
52550.0,STARLINK-3965,PAYLOAD,2022-09-28 13:38:14,15.08865784,0.0001824,53.2198,17.0395,46.0457,314.0685,0.00032812,4.941e-05,0.0,0 STARLINK-3965,1 52550U 22051T   22271.56822009  .00004941  00000-0  32812-3 0  9990,2 52550  53.2198  17.0395 0001824  46.0457 314.0685 15.08865784 21588,6917.802,95.436,540.928,538.405,0.0
52550.0,STARLINK-3965,PAYLOAD,2022-09-29 11:53:39,15.088262599999998,0.0001868,53.2198,12.877,45.4237,314.6908,-0.00038661,-6.434e-05,0.0,0 STARLINK-3965,1 52550U 22051T   22272.49559225 -.00006434  00000-0 -38661-3 0  9999,2 52550  53.2198  12.8770 0001868  45.4237 314.6908 15.08826260 21721,6917.922,95.438,541.08,538.495,0.0
52550.0,STARLINK-3965,PAYLOAD,2022-09-29 16:39:48,15.08828971,0.0001799,53.2195,11.9842,46.7448,313.3694,-0.00026634,-4.523e-05,0.0,0 STARLINK-3965,1 52550U 22051T   22272.69431274 -.00004523  00000-0 -26634-3 0  9998,2 52550  53.2195  11.9842 0001799  46.7448 313.3694 15.08828971 21683,6917.9140000000025,95.438,541.024,538.535,0.0
52550.0,STARLINK-3965,PAYLOAD,2022-09-30 13:19:49,15.08848439,0.0001905,53.2196,8.1192,41.2967,318.8169,0.00062553,9.684e-05,0.0,0 STARLINK-3965,1 52550U 22051T   22273.55543434  .00009684  00000-0  62553-3 0  9997,2 52550  53.2196   8.1192 0001905  41.2967 318.8169 15.08848439 21818,6917.855,95.437,541.0369999999998,538.4019999999998,0.0
52550.0,STARLINK-3965,PAYLOAD,2022-09-30 14:55:12,15.08851552,0.0001956999999999,53.2196,7.822,42.2331,317.8812,0.0012605,0.00019836,0.0,0 STARLINK-3965,1 52550U 22051T   22273.62167754  .00019836  00000-0  12605-2 0  9994,2 52550  53.2196   7.8220 0001957  42.2331 317.8812 15.08851552 21891,6917.845,95.437,541.064,538.356,0.0
52550.0,STARLINK-3965,PAYLOAD,2022-09-30 16:30:36,15.08855243,0.0001952,53.2198,7.5246,40.9491,319.1648,0.0013114,0.00020653,0.0,0 STARLINK-3965,1 52550U 22051T   22273.68791684  .00020653  00000-0  13114-2 0  9990,2 52550  53.2198   7.5246 0001952  40.9491 319.1648 15.08855243 21832,6917.834,95.437,541.049,538.3480000000002,0.0
52550.0,STARLINK-3965,PAYLOAD,2022-10-01 13:10:36,15.08856607,0.0001847,53.2208,3.6597,51.8778,308.2381,0.00019082,2.751e-05,0.0,0 STARLINK-3965,1 52550U 22051T   22274.54902781  .00002751  00000-0  19082-3 0  9998,2 52550  53.2208   3.6597 0001847  51.8778 308.2381 15.08856607 22033,6917.83,95.437,540.972,538.4169999999998,0.0
52550.0,STARLINK-3965,PAYLOAD,2022-10-01 16:21:22,15.08852488,0.0001931,53.2196,3.065,47.13800000000001,312.9774,0.00020474,2.973e-05,0.0,0 STARLINK-3965,1 52550U 22051T   22274.68150893  .00002973  00000-0  20474-3 0  9995,2 52550  53.2196   3.0650 0001931  47.1380 312.9774 15.08852488 21988,6917.842,95.437,541.043,538.371,0.0
52550.0,STARLINK-3965,PAYLOAD,2022-10-01 22:42:54,15.08849531,0.0002025,53.2193,1.8755,46.1452,313.9707,0.00020175,2.925e-05,0.0,0 STARLINK-3965,1 52550U 22051T   22274.94646962  .00002925  00000-0  20175-3 0  9996,2 52550  53.2193   1.8755 0002025  46.1452 313.9707 15.08849531 22096,6917.851,95.437,541.117,538.315,0.0
52550.0,STARLINK-3965,PAYLOAD,2022-10-02 13:01:23,15.08828894,0.0001867,53.2197,359.1994,41.3612,318.7522,-0.00025341,-4.318e-05,0.0,0 STARLINK-3965,1 52550U 22051T   22275.54263694 -.00004318  00000-0 -25341-3 0  9990,2 52550  53.2197 359.1994 0001867  41.3612 318.7522 15.08828894 22189,6917.9140000000025,95.438,541.071,538.488,0.0
52550.0,STARLINK-3965,PAYLOAD,2022-10-02 16:12:10,15.08830439,0.0001906,53.2197,358.6046,39.4308,320.6822,-0.00014465,-2.589e-05,0.0,0 STARLINK-3965,1 52550U 22051T   22275.67511803 -.00002589  00000-0 -14465-3 0  9995,2 52550  53.2197 358.6046 0001906  39.4308 320.6822 15.08830439 22133,6917.91,95.438,541.0930000000002,538.456,0.0
52550.0,STARLINK-3965,PAYLOAD,2022-10-02 22:33:42,15.08837606,0.0001876999999999,53.2195,357.4149,38.6194,321.4932,0.00014762,2.062e-05,0.0,0 STARLINK-3965,1 52550U 22051T   22275.94007794  .00002062  00000-0  14762-3 0  9998,2 52550  53.2195 357.4149 0001877  38.6194 321.4932 15.08837606 22249,6917.888000000001,95.438,541.0509999999998,538.4540000000002,0.0
52550.0,STARLINK-3965,PAYLOAD,2022-10-03 12:52:10,15.08862783,0.0001859,53.2191,354.7385,37.0481,323.064,0.0011999,0.00018872,0.0,0 STARLINK-3965,1 52550U 22051T   22276.53623533  .00018872  00000-0  11999-2 0  9993,2 52550  53.2191 354.7385 0001859  37.0481 323.0640 15.08862783 22269,6917.811,95.436,540.962,538.39,0.0
52550.0,STARLINK-3965,PAYLOAD,2022-10-03 17:38:19,15.08871231,0.0002043,53.2189,353.8475,33.6762,326.4359,0.0014455,0.00022812,0.0,0 STARLINK-3965,1 52550U 22051T   22276.73495364  .00022812  00000-0  14455-2 0  9993,2 52550  53.2189 353.8475 0002043  33.6762 326.4359 15.08871231 22369,6917.785,95.436,541.063,538.237,0.0
52550.0,STARLINK-3965,PAYLOAD,2022-10-03 22:24:29,15.08867378,0.0001629,53.2195,352.9544,31.3386,328.7703,0.00093753,0.00014675,0.0,0 STARLINK-3965,1 52550U 22051T   22276.93366968  .00014675  00000-0  93753-3 0  9999,2 52550  53.2195 352.9544 0001629  31.3386 328.7703 15.08867378 22397,6917.797,95.436,540.789,538.535,0.0
52550.0,STARLINK-3965,PAYLOAD,2022-10-04 12:42:57,15.08861274,0.0001906999999999,53.2189,350.2789,33.5778,326.5335,0.001217,0.00019145,0.0,0 STARLINK-3965,1 52550U 22051T   22277.52982641  .00019145  00000-0  12170-2 0  9997,2 52550  53.2189 350.2789 0001907  33.5778 326.5335 15.08861274 22419,6917.815,95.436,541.0,538.361,0.0
52550.0,STARLINK-3965,PAYLOAD,2022-10-04 22:15:15,15.08854335,0.0002150999999999,53.2189,348.4946,34.3471,325.766,0.0014202,0.00022396,0.0,0 STARLINK-3965,1 52550U 22051T   22277.92726637  .00022396  00000-0  14202-2 0  9992,2 52550  53.2189 348.4946 0002151  34.3471 325.7660 15.08854335 22540,6917.837,95.437,541.19,538.214,0.0
52550.0,STARLINK-3965,PAYLOAD,2022-10-05 10:58:21,15.08836063,0.0001914,53.2189,346.1156,36.2987,323.8135,0.00091547,0.0001431,0.0,0 STARLINK-3965,1 52550U 22051T   22278.45718926  .00014310  00000-0  91547-3 0  9998,2 52550  53.2189 346.1156 0001914  36.2987 323.8135 15.08836063 22620,6917.892,95.438,541.082,538.433,0.0
52550.0,STARLINK-3965,PAYLOAD,2022-10-06 04:27:36,15.0883303,0.0001875999999999,53.2185,342.8417,47.5451,312.5699,0.00045601,6.975e-05,0.0,0 STARLINK-3965,1 52550U 22051T   22279.18583610  .00006975  00000-0  45601-3 0  9997,2 52550  53.2185 342.8417 0001876  47.5451 312.5699 15.08833030 22730,6917.901999999999,95.438,541.064,538.469,0.0
52550.0,STARLINK-3965,PAYLOAD,2022-10-06 10:49:08,15.08841338,0.0001965,53.219,341.6536,41.6129,318.5012,0.00020453,2.969e-05,0.0,0 STARLINK-3965,1 52550U 22051T   22279.45079400  .00002969  00000-0  20453-3 0  9991,2 52550  53.2190 341.6536 0001965  41.6129 318.5012 15.08841338 22703,6917.876,95.437,541.101,538.382,0.0
52550.0,STARLINK-3965,PAYLOAD,2022-10-06 15:35:17,15.08845987,0.0002043,53.2188,340.7622,40.2423,319.8721,0.0003091,4.635e-05,0.0,0 STARLINK-3965,1 52550U 22051T   22279.64951279  .00004635  00000-0  30910-3 0  9996,2 52550  53.2188 340.7622 0002043  40.2423 319.8721 15.08845987 22734,6917.861999999999,95.437,541.14,538.314,0.0
52550.0,STARLINK-3965,PAYLOAD,2022-10-07 10:39:55,15.08844354,0.000208,53.2192,337.1932,43.7436,316.372,0.00029188,4.361e-05,0.0,0 STARLINK-3965,1 52550U 22051T   22280.44439601  .00004361  00000-0  29188-3 0  9997,2 52550  53.2192 337.1932 0002080  43.7436 316.3720 15.08844354 22857,6917.8669999999975,95.437,541.1709999999998,538.293,0.0
52550.0,STARLINK-3965,PAYLOAD,2022-10-08 04:09:10,15.08836076,0.0002086999999999,53.2195,333.923,42.5468,317.5685,-1.1853e-05,-4.77e-06,0.0,0 STARLINK-3965,1 52550U 22051T   22281.17303968 -.00000477  00000-0 -11853-4 0  9991,2 52550  53.2195 333.9230 0002087  42.5468 317.5685 15.08836076 23030,6917.892,95.438,541.201,538.314,0.0
52550.0,STARLINK-3965,PAYLOAD,2022-10-08 10:30:43,15.08829466,0.000194,53.2201,332.7343,42.1245,317.9896,-1.2583e-05,-4.88e-06,0.0,0 STARLINK-3965,1 52550U 22051T   22281.43800803 -.00000488  00000-0 -12583-4 0  9993,2 52550  53.2201 332.7343 0001940  42.1245 317.9896 15.08829466 23073,6917.913000000001,95.438,541.12,538.436,0.0
52550.0,STARLINK-3965,PAYLOAD,2022-10-08 12:06:06,15.088304999999998,0.0001926,53.2201,332.4366,42.6166,317.4976,-9.4026e-06,-4.38e-06,0.0,0 STARLINK-3965,1 52550U 22051T   22281.50424735 -.00000438  00000-0 -94026-5 0  9995,2 52550  53.2201 332.4366 0001926  42.6166 317.4976 15.08830500 23015,6917.909000000002,95.438,541.107,538.442,0.0
52550.0,STARLINK-3965,PAYLOAD,2022-10-08 20:03:02,15.08833545,0.0002052,53.2199,330.95,38.7654,321.3485,-2.5765e-05,-6.98e-06,0.0,0 STARLINK-3965,1 52550U 22051T   22281.83544774 -.00000698  00000-0 -25765-4 0  9998,2 52550  53.2199 330.9500 0002052  38.7654 321.3485 15.08833545 23069,6917.9,95.438,541.185,538.346,0.0
52550.0,STARLINK-3965,PAYLOAD,2022-10-09 03:59:58,15.08837303,0.0001975,53.2197,329.4628,34.586,325.526,-4.3943e-06,-3.58e-06,0.0,0 STARLINK-3965,1 52550U 22051T   22282.16664645 -.00000358  00000-0 -43943-5 0  9997,2 52550  53.2197 329.4628 0001975  34.5860 325.5260 15.08837303 23183,6917.889,95.438,541.12,538.387,0.0
